# From MPC114603
C/2018 O1 (ATLAS),e,154.0063,87.7658,162.6998,28.08212,0.0066231,0.94448841,10.1042,11/05.0/2022,2000,g 17.0,4.0
# From MPEC 2022-M21
P/2018 P3 (PANSTARRS),e,8.9142,59.1591,305.9728,3.004479,0.1892562,0.41710867,281.1393,11/05.0/2022,2000,g 14.5,4.0
# From MPC114603
P/2018 P4 (PANSTARRS),e,23.1094,353.0624,8.4075,6.683237,0.0570458,0.45062828,83.1125,11/05.0/2022,2000,g 12.0,4.0
# From MPEC 2021-P47
C/2018 P5 (PANSTARRS),e,7.2474,216.2030,131.9390,12.84107,0.0214192,0.64292178,28.8287,11/05.0/2022,2000,g 11.0,4.0
# From MPC118841
C/2018 R3 (Lemmon),e,69.7185,324.6054,112.7479,1560,0.0000160,0.99917708,0.0000,06/07.6941/2019,2000,g  9.5,4.0
# From MPEC 2022-M21
C/2018 R4 (Fuls),e,11.6711,298.5229,345.3243,347.1231,0.0001524,0.99503772,0.0000,03/02.7678/2018,2000,g 14.0,4.0
# From MPC114603
C/2018 R5 (Lemmon),e,103.7491,171.1152,178.1826,22.87983,0.0090059,0.84130012,12.5609,11/05.0/2022,2000,g 11.5,4.0
# From MPEC 2022-QC6
C/2018 S2 (TESS),e,64.1607,85.1039,290.7947,14.35777,0.0181165,0.61878895,26.4388,11/05.0/2022,2000,g  7.5,4.0
# From MPEC 2022-TA0
C/2018 U1 (Lemmon),h,11/03.1744/2021,108.3125,75.4870,180.4773,1.001536,4.993013,2000,5.0,4.0
# From MPC114604
C/2018 V1 (Machholz-Fujikawa-Iwamoto),h,12/02.8338/2018,144.0872,129.0228,89.0596,1.000347,0.389862,2000,12.0,4.0
# From MPC115884
C/2018 V2 (ATLAS),e,159.1675,357.0770,318.9996,25.05347,0.0078596,0.90086807,11.3221,11/05.0/2022,2000,g 15.0,4.0
# From MPC114604
P/2018 VN2 (Leonard),e,18.2626,226.4577,138.8384,4.063970,0.1203035,0.47892261,193.9085,11/05.0/2022,2000,g 15.0,4.0
# From MPEC 2021-P47
A/2018 V3,e,164.9675,308.6903,3.6010,126.9740,0.0006889,0.98943793,0.0000,09/09.0785/2019,2000,g 15.7,2.0
# From MPEC 2022-M21
C/2018 V4 (Africano),e,69.0199,78.2939,359.9377,200.7448,0.0003465,0.98408494,0.0000,03/01.4784/2019,2000,g 12.5,4.0
# From MPEC 2021-P47
P/2018 V5 (Trujillo-Sheppard),e,10.5890,171.2866,260.6597,8.959206,0.0367536,0.47542945,54.8910,11/05.0/2022,2000,g 12.5,4.0
# From MPEC 2021-P47
C/2018 W1 (Catalina),e,83.3616,233.6498,251.2165,21.68026,0.0097635,0.93730212,12.4307,11/05.0/2022,2000,g 15.5,2.0
# From MPEC 2021-P47
C/2018 W2 (Africano),h,09/05.3585/2019,116.6264,181.8162,158.0522,1.000533,1.459922,2000,9.5,4.0
# From MPEC 2022-Q17
A/2018 W3,e,104.8127,251.6694,313.9664,687.1543,0.0000547,0.99375599,0.0000,04/13.0490/2021,2000,g 10.5,2.0
# From MPC119996
C/2018 X2 (Fitzsimmons),e,23.0709,340.8188,161.9616,140.2327,0.0005935,0.98486735,0.0000,07/08.2108/2019,2000,g 12.0,4.0
# From MPC114604
C/2018 X3 (PANSTARRS),e,43.4017,78.8391,359.7388,12.37199,0.0226488,0.78244002,31.8217,11/05.0/2022,2000,g 14.5,4.0
# From MPC118842
C/2018 Y1 (Iwamoto),e,160.4058,147.4966,357.9312,131.7100,0.0006520,0.99025452,0.0000,02/06.1628/2019,2000,g 11.5,4.0
# From MPC114605
P/2018 Y2 (Africano),e,11.6834,297.2200,162.2440,7.453830,0.0484323,0.47907600,67.9678,11/05.0/2022,2000,g 11.5,4.0
# From MPC114605
P/2019 A1 (PANSTARRS),e,13.7490,312.2743,150.7099,5.117162,0.0851452,0.56893264,126.5375,11/05.0/2022,2000,g 16.0,4.0
# From MPEC 2021-P47
P/2019 A2 (ATLAS),e,14.8604,139.4553,323.8682,5.715024,0.0721401,0.38193728,104.2922,11/05.0/2022,2000,g 10.5,4.0
# From MPEC 2022-M21
P/2019 A3 (PANSTARRS),e,15.3749,31.2933,325.6264,3.144787,0.1767328,0.26608368,274.5632,11/05.0/2022,2000,g 16.0,4.0
# From MPEC 2022-L66
P/2019 A4 (PANSTARRS),e,13.3064,119.2433,342.9652,2.613413,0.2332877,0.08707420,332.4430,11/05.0/2022,2000,g 15.0,4.0
# From MPEC 2021-P47
C/2019 A5 (PANSTARRS),e,67.5548,146.6160,355.8273,21.49973,0.0098868,0.70621748,12.3298,11/05.0/2022,2000,g  9.5,4.0
# From MPC114605
P/2019 A6 (Lemmon-PANSTARRS),e,33.2571,280.2116,156.1816,5.358176,0.0794655,0.63972984,121.4369,11/05.0/2022,2000,g 16.0,4.0
# From MPC115884
P/2019 A8 (PANSTARRS),e,2.1925,114.5791,65.9476,4.268803,0.1117493,0.24417734,174.6182,11/05.0/2022,2000,g 16.0,4.0
# From MPC118842
C/2019 A9 (PANSTARRS),e,84.2252,278.3986,237.9258,39.16299,0.0040215,0.96346167,4.8179,11/05.0/2022,2000,g 15.0,4.0
# From MPEC 2022-L66
C/2019 B1 (Africano),e,123.3933,290.3922,174.7778,138.7623,0.0006030,0.98849038,0.0000,03/18.8971/2019,2000,g 16.0,4.0
# From MPC115885
P/2019 B2 (Groeller),e,17.0241,175.7440,1.0604,3.909337,0.1275115,0.36226444,159.7376,11/05.0/2022,2000,g 14.5,4.0
# From MPEC 2022-UY9
C/2019 B3 (PANSTARRS),h,01/20.4378/2021,66.5357,358.4364,263.9590,1.000518,6.824650,2000,5.5,4.0
# From MPEC 2021-P47
C/2019 C1 (ATLAS),e,36.0478,212.3896,319.1040,653.0627,0.0000591,0.98992766,0.0000,05/04.5434/2020,2000,g 10.0,4.0
# From MPEC 2022-O08
C/2019 D1 (Flewelling),e,34.0220,231.6738,70.6525,142.9677,0.0005766,0.98891966,0.0000,05/11.4627/2019,2000,g 13.0,4.0
# From MPEC 2022-V95
C/2019 E3 (ATLAS),h,11/14.5933/2023,84.2974,347.2519,280.6724,1.000525,10.313228,2000,2.5,4.0
# From MPEC 2022-V95
C/2019 F1 (ATLAS-Africano),h,06/23.0987/2021,54.1976,38.6876,251.2277,1.003617,3.598143,2000,5.5,4.0
# From MPEC 2021-P47
C/2019 F2 (ATLAS),e,19.2501,175.5057,11.5827,16.64420,0.0145147,0.86508246,16.7472,11/05.0/2022,2000,g 12.0,4.0
# From MPEC 2021-P47
A/2019 G2,e,159.2120,208.1575,82.6092,471.5563,0.0000963,0.99513768,0.0000,12/08.9981/2019,2000,g 16.5,2.0
# From MPEC 2021-F20
A/2019 G3,e,156.8098,49.8769,161.9337,17.21340,0.0138008,0.83438271,19.7587,11/05.0/2022,2000,g 17.1,2.0
# From MPEC 2022-P82
C/2019 G4 (PANSTARRS),h,09/15.9658/2018,138.3651,130.4581,287.8030,1.001933,5.851258,2000,9.5,4.0
# From MPC114607
P/2019 GG21 (PANSTARRS),e,6.0851,340.5629,208.6075,7.470537,0.0482699,0.47197387,61.5285,11/05.0/2022,2000,g 12.0,4.0
# From MPEC 2022-M21
C/2019 H1 (NEOWISE),e,104.4886,269.2530,19.3493,249.2599,0.0002505,0.99259522,0.0000,04/27.9882/2019,2000,g 15.5,4.0
# From MPEC 2022-O08
C/2019 J1 (Lemmon),e,24.5446,98.1384,167.7742,68.45779,0.0017401,0.96371331,2.2739,11/05.0/2022,2000,g 12.0,4.0
# From MPEC 2021-R75
C/2019 J2 (Palomar),e,105.2290,25.5547,98.7138,161.5547,0.0004800,0.98933096,0.0000,07/20.1207/2019,2000,g 13.0,4.0
# From MPC117071
C/2019 J3 (ATLAS),h,08/02.3271/2019,131.3710,270.5843,16.6204,1.000687,2.372756,2000,13.5,4.0
# From MPEC 2022-M21
C/2019 JU6 (ATLAS),e,148.3291,21.7613,95.0116,93596,0.0000000,0.99997814,0.0000,06/01.6118/2019,2000,g 14.5,4.0
# From MPEC 2022-O08
C/2019 K1 (ATLAS),e,87.0758,73.3518,265.7179,28141,0.0000002,0.99992846,0.0000,02/12.8799/2020,2000,g 10.0,4.0
# From MPC119997
C/2019 K4 (Ye),e,105.2966,180.1408,139.8428,1334,0.0000202,0.99830150,0.0000,06/15.7833/2019,2000,g 12.5,4.0
# From MPEC 2021-P47
C/2019 K5 (Young),e,15.3193,177.1265,175.1067,166.5766,0.0004584,0.98775400,0.0000,06/23.0706/2019,2000,g 13.0,4.0
# From MPEC 2021-P47
C/2019 K6 (PANSTARRS),e,132.3828,42.9858,187.6150,1753,0.0000134,0.99776069,0.0000,05/20.1505/2020,2000,g 11.5,4.0
# From MPEC 2022-TA0
C/2019 K7 (Smith),h,06/17.5137/2020,103.5384,307.9503,27.3898,1.000756,4.477940,2000,6.0,4.0
# From MPEC 2021-R75
C/2019 K8 (ATLAS),e,93.1671,291.0381,85.3856,2731,0.0000069,0.99883059,0.0000,07/21.7730/2019,2000,g 11.5,4.0
# From MPC118095
C/2019 L1 (PANSTARRS),e,9.9830,254.4291,50.0416,9.842538,0.0319186,0.70563105,37.7269,11/05.0/2022,2000,g 13.5,4.0
# From MPC115886
C/2019 L2 (NEOWISE),e,152.2104,12.5487,18.8218,24.98036,0.0078942,0.93493425,10.3670,11/05.0/2022,2000,g 16.0,4.0
# From MPEC 2022-UY9
P/2019 LD2 (ATLAS),e,11.6228,179.5973,120.8893,5.230552,0.0823916,0.12698312,79.5322,11/05.0/2022,2000,g  8.5,4.0
# From MPEC 2022-V95
C/2019 L3 (ATLAS),h,01/09.6279/2022,48.3540,290.7854,171.6122,1.001908,3.554420,2000,4.5,4.0
# From MPC118095
C/2019 LB7 (Kleyna),e,164.2918,3.8846,336.5300,34.60568,0.0048415,0.92807909,6.3893,11/05.0/2022,2000,g 17.0,4.0
# From MPEC 2022-O08
P/2019 M2 (ATLAS),e,12.2745,307.6137,332.5662,3.028362,0.1870219,0.64759608,230.3821,11/05.0/2022,2000,g 21.2,4.0
# From MPC118095
C/2019 M3 (ATLAS),e,99.4962,154.9173,87.8855,12297,0.0000007,0.99980314,0.0000,01/01.3038/2019,2000,g 12.2,4.0
# From MPEC 2022-R68
C/2019 N1 (ATLAS),e,82.4296,13.5736,193.4349,2119,0.0000101,0.99919525,0.0000,12/01.5338/2020,2000,g  7.5,4.0
# From MPEC 2022-A21
C/2019 NJ3 (Lemmon),h,10/22.8247/2020,99.4296,142.4633,246.9031,1.002252,4.362712,2000,9.0,4.0
# From MPEC 2022-V95
A/2019 O2,e,93.3028,48.2691,129.6522,57.69341,0.0022491,0.83216901,359.6547,11/05.0/2022,2000,g  9.5,2.0
# From MPEC 2022-V95
C/2019 O3 (Palomar),h,03/09.3813/2021,89.8198,300.4065,60.1188,1.004192,8.820602,2000,3.5,4.0
# From MPEC 2021-P47
A/2019 O4,e,115.0957,354.9080,61.8961,33.21008,0.0051499,0.89020030,5.1415,11/05.0/2022,2000,g 15.5,2.0
# From MPEC 2021-N06
C/2019 Q1 (Lemmon),h,07/20.4599/2020,155.7272,42.4657,56.1693,1.000357,5.001362,2000,8.5,4.0
# From MPC117072
A/2019 Q2,e,159.0316,188.0050,176.3598,57.60102,0.0022545,0.97809681,0.0000,07/22.0281/2019,2000,g 18.0,2.0
# From MPC117072
C/2019 Q3 (PANSTARRS),h,08/21.5047/2018,65.5320,151.3300,152.7807,1.002842,7.263655,2000,8.5,4.0
# From MPC117072
P/2019 S2 (PANSTARRS),e,10.4677,93.1404,217.1296,4.741513,0.0954616,0.20603819,129.0311,11/05.0/2022,2000,g 13.5,4.0
# From MPEC 2022-CN4
P/2019 S3 (PANSTARRS),e,8.6940,150.1577,213.0331,3.415379,0.1561513,0.47122866,182.0812,11/05.0/2022,2000,g 18.3,4.0
# From MPEC 2021-S45
C/2019 S4 (Lemmon),e,92.0650,63.1501,71.3726,231.8657,0.0002792,0.98515273,0.0000,04/07.9476/2020,2000,g 11.0,4.0
# From MPEC 2022-L66
A/2019 T1,e,120.8773,6.9447,91.0725,38.64838,0.0041021,0.88920637,2.7045,11/05.0/2022,2000,g 13.0,2.0
# From MPEC 2022-L66
C/2019 T2 (Lemmon),e,111.4839,155.6462,239.4255,3262,0.0000053,0.99918880,0.0000,04/22.4512/2021,2000,g  9.0,4.0
# From MPEC 2022-V95
C/2019 T3 (ATLAS),e,121.8470,139.5315,112.4243,3086,0.0000058,0.99807146,0.0000,03/04.0273/2021,2000,g  6.8,4.0
# From MPEC 2022-R68
C/2019 T4 (ATLAS),e,53.6312,199.9390,351.1881,984.0404,0.0000319,0.99568888,0.0000,06/09.0543/2022,2000,g  5.0,4.0
# From MPEC 2021-P47
P/2019 T5 (ATLAS),e,33.4733,247.6356,189.5616,7.996073,0.0435902,0.80939259,51.9360,11/05.0/2022,2000,g 15.0,4.0
# From MPEC 2021-P47
